[{"OBJECT_NAME":"STARLINK-5872","OBJECT_ID":"2023-094Q","EPOCH":"2026-03-09T22:00:01.999584","MEAN_MOTION":15.11376105,"ECCENTRICITY":0.00015753,"INCLINATION":43.0004,"RA_OF_ASC_NODE":28.4509,"ARG_OF_PERICENTER":248.1924,"MEAN_ANOMALY":38.1454,"EPHEMERIS_TYPE":0,"CLASSIFICATION_TYPE":"U","NORAD_CAT_ID":57232,"ELEMENT_SET_NO":999,"REV_AT_EPOCH":537,"BSTAR":0.0043979338,"MEAN_MOTION_DOT":0.00076111,"MEAN_MOTION_DDOT":0},{"OBJECT_NAME":"COSMOS 252 DEB","OBJECT_ID":"1968-097EJ","EPOCH":"2026-03-08T03:14:49.249536","MEAN_MOTION":13.20252107,"ECCENTRICITY":0.08649847,"INCLINATION":62.3495,"RA_OF_ASC_NODE":342.3911,"ARG_OF_PERICENTER":136.4436,"MEAN_ANOMALY":230.8291,"EPHEMERIS_TYPE":0,"CLASSIFICATION_TYPE":"U","NORAD_CAT_ID":18431,"ELEMENT_SET_NO":999,"REV_AT_EPOCH":43500,"BSTAR":0.00032551116,"MEAN_MOTION_DOT":9.11e-6,"MEAN_MOTION_DDOT":0}]
